0 COSMOS 2251 DEB
1 35770U 93036ARQ 13282.19093373  .00015704  00000-0  26603-2 0  2825
2 35770 074.2206 104.8424 0048045 310.7608 048.9397 14.68515753223983
0 COSMOS 2251 DEB
1 35770U 93036ARQ 13283.14466566  .00016503  00000-0  27976-2 0  2832
2 35770 074.2203 103.0338 0045496 307.8625 051.9302 14.68555631224124
0 COSMOS 2251 DEB
1 35770U 93036ARQ 13284.16647613  .00017141  00000-0  29072-2 0  2848
2 35770 074.1858 101.1158 0043072 307.7131 052.0828 14.68597721224274
0 COSMOS 2251 DEB
1 35770U 93036ARQ 13289.13889890  .00025827  00000-0  43308-2 0  2865
2 35770 074.2103 091.5441 0046985 302.2424 058.5809 14.68897817225007
0 COSMOS 2251 DEB
1 35770U 93036ARQ 13291.11370545  .00027285  00000-0  45595-2 0  2879
2 35770 074.1887 087.7876 0047432 300.6693 059.2382 14.69021964225290
0 COSMOS 2251 DEB
1 35770U 93036ARQ 13296.08456605  .00034768  00000-0  57505-2 0  2881
2 35770 074.2132 078.2306 0047726 275.8231 085.3347 14.69405407226025
